FLOCK 4H-33             
1 66736U 25276BY  26193.20437065  .00003627  00000+0  16591-3 0  9990
2 66736  97.4219 266.7367 0002483 169.7635 190.3651 15.21166393 34248
FLOCK 4H-34             
1 66737U 25276BZ  26193.45382951  .00003961  00000+0  18270-3 0  9998
2 66737  97.4236 266.9063 0002292 177.8323 182.2923 15.20816124 33520
FLOCK 4H-35             
1 66738U 25276CA  26192.77187029  .00003959  00000+0  18205-3 0  9997
2 66738  97.4194 266.1735 0002216 159.0963 201.0363 15.20926771 33461
FLOCK 4H-36             
1 66739U 25276CB  26193.13889177  .00003912  00000+0  18114-3 0  9990
2 66739  97.4242 266.5894 0002075 193.6678 166.4502 15.20693594 34224
