{"fetched_at":"2026-07-12T17:32:25.735Z","source":"https://celestrak.org/NORAD/elements/gp.php?GROUP=planet&FORMAT=JSON","constellation":"superdove","records":[{"OBJECT_NAME":"FLOCK 4H-33","OBJECT_ID":"2025-276BY","EPOCH":"2026-07-12T04:54:17.624160","CLASSIFICATION_TYPE":"U","MEAN_MOTION":15.21166393,"ECCENTRICITY":0.00024831,"INCLINATION":97.4219,"RA_OF_ASC_NODE":266.7367,"ARG_OF_PERICENTER":169.7635,"MEAN_ANOMALY":190.3651,"EPHEMERIS_TYPE":0,"NORAD_CAT_ID":66736,"ELEMENT_SET_NO":999,"REV_AT_EPOCH":3424,"BSTAR":0.00016590566,"MEAN_MOTION_DOT":0.00003627,"MEAN_MOTION_DDOT":0},{"OBJECT_NAME":"FLOCK 4H-34","OBJECT_ID":"2025-276BZ","EPOCH":"2026-07-12T10:53:30.868800","CLASSIFICATION_TYPE":"U","MEAN_MOTION":15.20816124,"ECCENTRICITY":0.0002293,"INCLINATION":97.4236,"RA_OF_ASC_NODE":266.9063,"ARG_OF_PERICENTER":177.8323,"MEAN_ANOMALY":182.2923,"EPHEMERIS_TYPE":0,"NORAD_CAT_ID":66737,"ELEMENT_SET_NO":999,"REV_AT_EPOCH":3352,"BSTAR":0.0001827,"MEAN_MOTION_DOT":0.00003961,"MEAN_MOTION_DDOT":0},{"OBJECT_NAME":"FLOCK 4H-35","OBJECT_ID":"2025-276CA","EPOCH":"2026-07-11T18:31:29.593056","CLASSIFICATION_TYPE":"U","MEAN_MOTION":15.20926771,"ECCENTRICITY":0.00022163,"INCLINATION":97.4194,"RA_OF_ASC_NODE":266.1735,"ARG_OF_PERICENTER":159.0963,"MEAN_ANOMALY":201.0363,"EPHEMERIS_TYPE":0,"NORAD_CAT_ID":66738,"ELEMENT_SET_NO":999,"REV_AT_EPOCH":3346,"BSTAR":0.00018204756,"MEAN_MOTION_DOT":0.00003959,"MEAN_MOTION_DDOT":0},{"OBJECT_NAME":"FLOCK 4H-36","OBJECT_ID":"2025-276CB","EPOCH":"2026-07-12T03:20:00.248928","CLASSIFICATION_TYPE":"U","MEAN_MOTION":15.20693594,"ECCENTRICITY":0.00020751,"INCLINATION":97.4242,"RA_OF_ASC_NODE":266.5894,"ARG_OF_PERICENTER":193.6678,"MEAN_ANOMALY":166.4502,"EPHEMERIS_TYPE":0,"NORAD_CAT_ID":66739,"ELEMENT_SET_NO":999,"REV_AT_EPOCH":3422,"BSTAR":0.0001811382,"MEAN_MOTION_DOT":0.00003912,"MEAN_MOTION_DDOT":0}]}
